[
  {
    "OBJECT_NAME": "STARLINK-30556",
    "OBJECT_ID": "23156D",
    "EPOCH": "2025-11-11T05:28:33.721248",
    "MEAN_MOTION": 15.30190487,
    "ECCENTRICITY": 0.0001213,
    "INCLINATION": 53.161,
    "RA_OF_ASC_NODE": 278.6384,
    "ARG_OF_PERICENTER": 88.9842,
    "MEAN_ANOMALY": 271.1298,
    "EPHEMERIS_TYPE": 0,
    "CLASSIFICATION_TYPE": "U",
    "NORAD_CAT_ID": 58031,
    "ELEMENT_SET_NO": 999,
    "REV_AT_EPOCH": 11802,
    "BSTAR": 6.6413e-05,
    "MEAN_MOTION_DOT": 1.608e-05,
    "MEAN_MOTION_DDOT": 0.0,
    "TLE_LINE1": "1 58031U 23156D   25315.22816807  .00001608  00000+0  66413-4 0  9992",
    "TLE_LINE2": "2 58031  53.1610 278.6384 0001213  88.9842 271.1298 15.30190487118029",
    "COMMENT": "Grouped by shell and plane from TLE"
  },
  {
    "OBJECT_NAME": "STARLINK-30960",
    "OBJECT_ID": "23183V",
    "EPOCH": "2025-11-11T05:35:36.999168",
    "MEAN_MOTION": 15.26760871,
    "ECCENTRICITY": 7.96e-05,
    "INCLINATION": 42.9985,
    "RA_OF_ASC_NODE": 270.15,
    "ARG_OF_PERICENTER": 289.6995,
    "MEAN_ANOMALY": 70.377,
    "EPHEMERIS_TYPE": 0,
    "CLASSIFICATION_TYPE": "U",
    "NORAD_CAT_ID": 58456,
    "ELEMENT_SET_NO": 999,
    "REV_AT_EPOCH": 10956,
    "BSTAR": 0.00039803,
    "MEAN_MOTION_DOT": 0.00010439,
    "MEAN_MOTION_DDOT": 0.0,
    "TLE_LINE1": "1 58456U 23183V   25315.23306712  .00010439  00000+0  39803-3 0  9997",
    "TLE_LINE2": "2 58456  42.9985 270.1500 0000796 289.6995  70.3770 15.26760871109560",
    "COMMENT": "Grouped by shell and plane from TLE"
  },
  {
    "OBJECT_NAME": "STARLINK-31206",
    "OBJECT_ID": "24038F",
    "EPOCH": "2025-11-11T06:14:09.072672",
    "MEAN_MOTION": 15.27594735,
    "ECCENTRICITY": 6.84e-05,
    "INCLINATION": 43.0041,
    "RA_OF_ASC_NODE": 270.8463,
    "ARG_OF_PERICENTER": 268.1734,
    "MEAN_ANOMALY": 91.904,
    "EPHEMERIS_TYPE": 0,
    "CLASSIFICATION_TYPE": "U",
    "NORAD_CAT_ID": 59028,
    "ELEMENT_SET_NO": 999,
    "REV_AT_EPOCH": 9741,
    "BSTAR": 0.00012284,
    "MEAN_MOTION_DOT": 3.121e-05,
    "MEAN_MOTION_DDOT": 0.0,
    "TLE_LINE1": "1 59028U 24038F   25315.25982723  .00003121  00000+0  12284-3 0  9991",
    "TLE_LINE2": "2 59028  43.0041 270.8463 0000684 268.1734  91.9040 15.27594735 97419",
    "COMMENT": "Grouped by shell and plane from TLE"
  },
  {
    "OBJECT_NAME": "STARLINK-31704",
    "OBJECT_ID": "24076Y",
    "EPOCH": "2025-11-11T07:03:19.926432",
    "MEAN_MOTION": 15.27638542,
    "ECCENTRICITY": 0.0001565,
    "INCLINATION": 43.0013,
    "RA_OF_ASC_NODE": 274.1332,
    "ARG_OF_PERICENTER": 251.44,
    "MEAN_ANOMALY": 108.6282,
    "EPHEMERIS_TYPE": 0,
    "CLASSIFICATION_TYPE": "U",
    "NORAD_CAT_ID": 59586,
    "ELEMENT_SET_NO": 999,
    "REV_AT_EPOCH": 8888,
    "BSTAR": 0.0017193,
    "MEAN_MOTION_DOT": 0.00047438,
    "MEAN_MOTION_DDOT": 0.0,
    "TLE_LINE1": "1 59586U 24076Y   25315.29398063  .00047438  00000+0  17193-2 0  9996",
    "TLE_LINE2": "2 59586  43.0013 274.1332 0001565 251.4400 108.6282 15.27638542 88883",
    "COMMENT": "Grouped by shell and plane from TLE"
  },
  {
    "OBJECT_NAME": "STARLINK-31959",
    "OBJECT_ID": "24106D",
    "EPOCH": "2025-11-11T06:10:53.186592",
    "MEAN_MOTION": 15.27624282,
    "ECCENTRICITY": 0.0001183,
    "INCLINATION": 42.9997,
    "RA_OF_ASC_NODE": 277.5246,
    "ARG_OF_PERICENTER": 257.8995,
    "MEAN_ANOMALY": 102.1724,
    "EPHEMERIS_TYPE": 0,
    "CLASSIFICATION_TYPE": "U",
    "NORAD_CAT_ID": 59925,
    "ELEMENT_SET_NO": 999,
    "REV_AT_EPOCH": 8245,
    "BSTAR": 0.000859,
    "MEAN_MOTION_DOT": 0.00023483,
    "MEAN_MOTION_DDOT": 0.0,
    "TLE_LINE1": "1 59925U 24106D   25315.25756003  .00023483  00000+0  85900-3 0  9991",
    "TLE_LINE2": "2 59925  42.9997 277.5246 0001183 257.8995 102.1724 15.27624282 82458",
    "COMMENT": "Grouped by shell and plane from TLE"
  },
  {
    "OBJECT_NAME": "STARLINK-31932",
    "OBJECT_ID": "24106H",
    "EPOCH": "2025-11-11T05:48:52.944480",
    "MEAN_MOTION": 15.2758716,
    "ECCENTRICITY": 0.0001475,
    "INCLINATION": 43.0032,
    "RA_OF_ASC_NODE": 278.2502,
    "ARG_OF_PERICENTER": 300.5892,
    "MEAN_ANOMALY": 59.4814,
    "EPHEMERIS_TYPE": 0,
    "CLASSIFICATION_TYPE": "U",
    "NORAD_CAT_ID": 59929,
    "ELEMENT_SET_NO": 999,
    "REV_AT_EPOCH": 8244,
    "BSTAR": 0.0,
    "MEAN_MOTION_DOT": -0.00055317,
    "MEAN_MOTION_DDOT": 0.0,
    "TLE_LINE1": "1 59929U 24106H   25315.24227945 -.00055317  00000+0 -20152-2 0  9992",
    "TLE_LINE2": "2 59929  43.0032 278.2502 0001475 300.5892  59.4814 15.27587160 82449",
    "COMMENT": "Grouped by shell and plane from TLE"
  },
  {
    "OBJECT_NAME": "STARLINK-31971",
    "OBJECT_ID": "24106N",
    "EPOCH": "2025-11-11T05:54:24.652224",
    "MEAN_MOTION": 15.27590347,
    "ECCENTRICITY": 0.0001671,
    "INCLINATION": 43.0029,
    "RA_OF_ASC_NODE": 278.2333,
    "ARG_OF_PERICENTER": 279.6402,
    "MEAN_ANOMALY": 80.4261,
    "EPHEMERIS_TYPE": 0,
    "CLASSIFICATION_TYPE": "U",
    "NORAD_CAT_ID": 59934,
    "ELEMENT_SET_NO": 999,
    "REV_AT_EPOCH": 8232,
    "BSTAR": 0.00018373,
    "MEAN_MOTION_DOT": 4.798e-05,
    "MEAN_MOTION_DDOT": 0.0,
    "TLE_LINE1": "1 59934U 24106N   25315.24611866  .00004798  00000+0  18373-3 0  9995",
    "TLE_LINE2": "2 59934  43.0029 278.2333 0001671 279.6402  80.4261 15.27590347 82322",
    "COMMENT": "Grouped by shell and plane from TLE"
  },
  {
    "OBJECT_NAME": "STARLINK-31948",
    "OBJECT_ID": "24106V",
    "EPOCH": "2025-11-11T05:43:18.935040",
    "MEAN_MOTION": 15.27596822,
    "ECCENTRICITY": 0.0001368,
    "INCLINATION": 43.0039,
    "RA_OF_ASC_NODE": 278.2175,
    "ARG_OF_PERICENTER": 247.5237,
    "MEAN_ANOMALY": 112.547,
    "EPHEMERIS_TYPE": 0,
    "CLASSIFICATION_TYPE": "U",
    "NORAD_CAT_ID": 59941,
    "ELEMENT_SET_NO": 999,
    "REV_AT_EPOCH": 8244,
    "BSTAR": 0.00022108,
    "MEAN_MOTION_DOT": 5.829e-05,
    "MEAN_MOTION_DDOT": 0.0,
    "TLE_LINE1": "1 59941U 24106V   25315.23841360  .00005829  00000+0  22108-3 0  9993",
    "TLE_LINE2": "2 59941  43.0039 278.2175 0001368 247.5237 112.5470 15.27596822 82444",
    "COMMENT": "Grouped by shell and plane from TLE"
  },
  {
    "OBJECT_NAME": "STARLINK-32400",
    "OBJECT_ID": "24193J",
    "EPOCH": "2025-11-11T04:20:23.293824",
    "MEAN_MOTION": 15.30195137,
    "ECCENTRICITY": 0.0001277,
    "INCLINATION": 53.1614,
    "RA_OF_ASC_NODE": 279.2503,
    "ARG_OF_PERICENTER": 86.4233,
    "MEAN_ANOMALY": 273.6914,
    "EPHEMERIS_TYPE": 0,
    "CLASSIFICATION_TYPE": "U",
    "NORAD_CAT_ID": 61669,
    "ELEMENT_SET_NO": 999,
    "REV_AT_EPOCH": 5841,
    "BSTAR": 6.3322e-05,
    "MEAN_MOTION_DOT": 1.516e-05,
    "MEAN_MOTION_DDOT": 0.0,
    "TLE_LINE1": "1 61669U 24193J   25315.18082516  .00001516  00000+0  63322-4 0  9996",
    "TLE_LINE2": "2 61669  53.1614 279.2503 0001277  86.4233 273.6914 15.30195137 58416",
    "COMMENT": "Grouped by shell and plane from TLE"
  },
  {
    "OBJECT_NAME": "STARLINK-32591",
    "OBJECT_ID": "24196M",
    "EPOCH": "2025-11-11T06:26:16.200384",
    "MEAN_MOTION": 15.30193964,
    "ECCENTRICITY": 0.0001248,
    "INCLINATION": 53.1613,
    "RA_OF_ASC_NODE": 278.724,
    "ARG_OF_PERICENTER": 98.7103,
    "MEAN_ANOMALY": 261.4039,
    "EPHEMERIS_TYPE": 0,
    "CLASSIFICATION_TYPE": "U",
    "NORAD_CAT_ID": 61718,
    "ELEMENT_SET_NO": 999,
    "REV_AT_EPOCH": 5920,
    "BSTAR": 7.1432e-05,
    "MEAN_MOTION_DOT": 1.757e-05,
    "MEAN_MOTION_DDOT": 0.0,
    "TLE_LINE1": "1 61718U 24196M   25315.26824306  .00001757  00000+0  71432-4 0  9992",
    "TLE_LINE2": "2 61718  53.1613 278.7240 0001248  98.7103 261.4039 15.30193964 59209",
    "COMMENT": "Grouped by shell and plane from TLE"
  },
  {
    "OBJECT_NAME": "STARLINK-32692",
    "OBJECT_ID": "24249P",
    "EPOCH": "2025-11-11T06:56:39.614496",
    "MEAN_MOTION": 15.27616033,
    "ECCENTRICITY": 0.0001396,
    "INCLINATION": 43.0016,
    "RA_OF_ASC_NODE": 270.7034,
    "ARG_OF_PERICENTER": 357.5738,
    "MEAN_ANOMALY": 2.5107,
    "EPHEMERIS_TYPE": 0,
    "CLASSIFICATION_TYPE": "U",
    "NORAD_CAT_ID": 62422,
    "ELEMENT_SET_NO": 999,
    "REV_AT_EPOCH": 4961,
    "BSTAR": 0.00083829,
    "MEAN_MOTION_DOT": 0.00022903,
    "MEAN_MOTION_DDOT": 0.0,
    "TLE_LINE1": "1 62422U 24249P   25315.28934739  .00022903  00000+0  83829-3 0  9996",
    "TLE_LINE2": "2 62422  43.0016 270.7034 0001396 357.5738   2.5107 15.27616033 49611",
    "COMMENT": "Grouped by shell and plane from TLE"
  },
  {
    "OBJECT_NAME": "STARLINK-32638",
    "OBJECT_ID": "24249R",
    "EPOCH": "2025-11-11T07:16:18.463872",
    "MEAN_MOTION": 15.27649022,
    "ECCENTRICITY": 0.0001627,
    "INCLINATION": 43.0024,
    "RA_OF_ASC_NODE": 274.2901,
    "ARG_OF_PERICENTER": 277.1916,
    "MEAN_ANOMALY": 82.8751,
    "EPHEMERIS_TYPE": 0,
    "CLASSIFICATION_TYPE": "U",
    "NORAD_CAT_ID": 62424,
    "ELEMENT_SET_NO": 999,
    "REV_AT_EPOCH": 4957,
    "BSTAR": 0.0018329000000000002,
    "MEAN_MOTION_DOT": 0.0005063,
    "MEAN_MOTION_DDOT": 0.0,
    "TLE_LINE1": "1 62424U 24249R   25315.30299148  .00050630  00000+0  18329-2 0  9999",
    "TLE_LINE2": "2 62424  43.0024 274.2901 0001627 277.1916  82.8751 15.27649022 49571",
    "COMMENT": "Grouped by shell and plane from TLE"
  },
  {
    "OBJECT_NAME": "STARLINK-32614",
    "OBJECT_ID": "24249V",
    "EPOCH": "2025-11-11T06:51:06.189120",
    "MEAN_MOTION": 15.27616631,
    "ECCENTRICITY": 0.0001252,
    "INCLINATION": 43.0011,
    "RA_OF_ASC_NODE": 270.6864,
    "ARG_OF_PERICENTER": 282.1814,
    "MEAN_ANOMALY": 77.8897,
    "EPHEMERIS_TYPE": 0,
    "CLASSIFICATION_TYPE": "U",
    "NORAD_CAT_ID": 62428,
    "ELEMENT_SET_NO": 999,
    "REV_AT_EPOCH": 4961,
    "BSTAR": 0.0009096,
    "MEAN_MOTION_DOT": 0.00024881,
    "MEAN_MOTION_DDOT": 0.0,
    "TLE_LINE1": "1 62428U 24249V   25315.28548830  .00024881  00000+0  90960-3 0  9996",
    "TLE_LINE2": "2 62428  43.0011 270.6864 0001252 282.1814  77.8897 15.27616631 49616",
    "COMMENT": "Grouped by shell and plane from TLE"
  }
]